OBJECT_NAME,OBJECT_ID,EPOCH,MEAN_MOTION,ECCENTRICITY,INCLINATION,RA_OF_ASC_NODE,ARG_OF_PERICENTER,MEAN_ANOMALY,EPHEMERIS_TYPE,CLASSIFICATION_TYPE,NORAD_CAT_ID,ELEMENT_SET_NO,REV_AT_EPOCH,BSTAR,MEAN_MOTION_DOT,MEAN_MOTION_DDOT
LAOSAT 1,2015-067A,2026-07-13T07:13:53.050080,1.00269332,.0002144,0.0362,140.6237,278.3538,109.1831,0,U,41034,999,3912,0,-.346E-5,0
TELSTAR 12V,2015-068A,2026-07-13T09:58:18.329088,1.00269781,.0002065,0.0265,49.5021,60.7508,315.6298,0,U,41036,999,3888,0,0,0
ELEKTRO-L 2,2015-074A,2026-07-13T09:58:25.818240,1.00272170,.0000973,6.7568,70.1954,213.8203,142.3782,0,U,41105,999,3876,0,-.126E-5,0
COSMOS 2513,2015-075A,2026-07-13T01:52:10.915968,1.00268860,.00026592,0.0633,103.1119,342.9533,313.1741,0,U,41121,999,3880,0,-.139E-5,0
EXPRESS-AMU1,2015-082A,2026-07-13T11:55:25.723200,1.00272649,.0002303,0.0176,72.1941,50.4547,23.6665,0,U,41191,999,3853,0,.152E-5,0
GAOFEN-4,2015-083A,2026-07-13T13:57:56.269728,1.00283169,.0003701,0.4231,83.8395,125.6902,37.0996,0,U,41194,999,3879,0,-.34E-5,0
BELINTERSAT-1,2016-001A,2026-07-13T11:59:55.292064,1.00272449,.00019,0.0592,251.8656,177.6856,93.2900,0,U,41238,999,3850,0,.103E-5,0
IRNSS-1E,2016-003A,2026-07-10T13:58:50.692224,1.00267797,.0019285,33.2836,59.4106,178.7449,11.7354,0,U,41241,999,3831,0,-.316E-5,0
EUTELSAT 9B,2016-005A,2026-07-13T08:22:26.445216,1.00269978,.0000998,0.0321,56.9303,44.4993,324.3904,0,U,41310,999,3837,0,.58E-6,0
SES-9,2016-013A,2026-07-13T08:50:46.227840,1.00270625,.0002054,0.0161,330.6598,134.6810,66.9019,0,U,41380,999,3770,0,-.348E-5,0
EUTELSAT 65 WEST A,2016-014A,2026-07-13T12:28:39.556128,1.00269766,.0002006,0.0629,319.8175,155.2060,298.3468,0,U,41382,999,3778,0,-.28E-5,0
IRNSS-1F,2016-015A,2026-07-13T06:46:33.171168,1.00265247,.0017704,5.4126,96.1780,180.2487,148.9163,0,U,41384,999,3792,0,.149E-5,0
BEIDOU-2 IGSO-6,2016-021A,2026-06-26T02:38:38.671584,1.00258926,.0057558,60.2385,37.9495,231.0163,137.2672,0,U,41434,999,3757,0,-.145E-5,0
IRNSS-1G,2016-027A,2026-07-13T12:22:15.305088,1.00271982,.0005962,5.2587,96.8656,10.3074,139.4630,0,U,41469,999,3744,0,-.343E-5,0
JCSAT-2B,2016-028A,2026-07-13T12:13:38.709984,1.00269730,.0000742,0.0176,37.2242,79.7675,151.8010,0,U,41471,999,3739,0,-.169E-5,0
THAICOM 8,2016-031A,2026-07-13T10:24:53.280864,1.00270465,.0002943,0.0726,47.6686,26.2666,92.0827,0,U,41552,999,3698,0,-.124E-5,0
INTELSAT 31 (IS-31),2016-035A,2026-07-13T04:27:28.037952,1.00271434,.0001139,0.0160,289.2103,354.6494,339.0259,0,U,41581,999,3694,0,-.153E-5,0
BEIDOU-2 G7,2016-037A,2026-07-13T12:16:45.831648,1.00274364,.0005997,1.7819,69.4825,359.3097,157.3152,0,U,41586,999,715,0,-.359E-5,0
ABS-2A (MONGOLSAT-1),2016-038A,2026-07-13T10:23:53.377152,1.00269028,.0001222,0.0128,27.9629,28.3002,105.7114,0,U,41588,999,3697,0,-.87E-6,0
EUTELSAT 117 WEST B,2016-038B,2026-07-13T11:17:38.747040,1.00270338,.0000324,0.0079,161.6979,315.5484,226.5130,0,U,41589,999,3692,0,-.15E-6,0
BRISAT,2016-039A,2026-07-13T12:13:38.709984,1.00268953,.0001868,0.0180,19.5359,95.2920,150.4690,0,U,41591,999,3687,0,0,0
ECHOSTAR 18,2016-039B,2026-07-13T11:27:43.379424,1.00270731,.0001335,0.0046,102.9535,20.0827,278.8778,0,U,41592,999,3688,0,-.286E-5,0
MUOS-5,2016-041A,2026-07-13T12:07:39.576288,1.00271734,.0199493,2.1486,302.1765,260.6346,165.3414,0,U,41622,999,3735,0,-.132E-5,0
TIANTONG-1 1,2016-048A,2026-07-13T12:14:08.582784,1.00269533,.0004938,3.8986,43.6118,57.8965,114.8020,0,U,41725,999,3653,0,-.323E-5,0
JCSAT-16,2016-050A,2026-07-13T12:26:14.920800,1.00270001,.0001082,0.0182,35.7226,108.2266,117.9502,0,U,41729,999,3633,0,-.255E-5,0
USA 270,2016-052A,2026-07-11T11:26:02.408928,1.00269374,.0009314,4.2578,76.8776,101.3149,48.8838,0,U,41744,999,2837,0,-.349E-5,0
USA 271,2016-052B,2026-07-07T17:38:01.230144,1.00271212,.0010955,4.2217,76.9947,166.6184,44.5685,0,U,41745,999,2812,0,-.278E-5,0
INTELSAT 36 (IS-36),2016-053A,2026-07-13T12:04:39.835776,1.00270075,.00025,0.0103,19.8867,320.6602,200.4802,0,U,41747,999,3622,0,-.28E-6,0
INSAT-3DR,2016-054A,2026-07-13T12:06:17.180064,1.00270618,.0010621,0.0655,88.6958,181.2588,276.9977,0,U,41752,999,3608,0,-.81E-6,0
GSAT-18,2016-060A,2026-07-13T12:06:17.180064,1.00271112,.0005223,0.0310,89.5602,348.6212,108.7352,0,U,41793,999,3579,0,-.8E-6,0
SKY MUSTER 2 (NBN1B),2016-060B,2026-07-13T12:26:22.409088,1.00268891,.0001587,0.0211,43.3705,82.3428,137.0751,0,U,41794,999,3578,0,0,0
HIMAWARI-9,2016-064A,2026-07-13T07:17:22.715232,1.00270182,.0002222,0.0072,104.8912,76.0059,0.3761,0,U,41836,999,3547,0,-.278E-5,0
