LAOSAT 1                
1 41034U 15067A   26194.30130845 -.00000346  00000+0  00000+0 0  9999
2 41034   0.0362 140.6237 0002144 278.3538 109.1831  1.00269332 39129
TELSTAR 12V             
1 41036U 15068A   26194.41548992  .00000000  00000+0  00000+0 0  9996
2 41036   0.0265  49.5021 0002065  60.7508 315.6298  1.00269781 38884
ELEKTRO-L 2             
1 41105U 15074A   26194.41557660 -.00000126  00000+0  00000+0 0  9992
2 41105   6.7568  70.1954 0000973 213.8203 142.3782  1.00272170 38760
COSMOS 2513             
1 41121U 15075A   26194.07790412 -.00000139  00000+0  00000+0 0  9991
2 41121   0.0633 103.1119 0002659 342.9533 313.1741  1.00268860 38800
EXPRESS-AMU1            
1 41191U 15082A   26194.49682550  .00000152  00000+0  00000+0 0  9999
2 41191   0.0176  72.1941 0002303  50.4547  23.6665  1.00272649 38537
GAOFEN-4                
1 41194U 15083A   26194.58190127 -.00000340  00000+0  00000+0 0  9997
2 41194   0.4231  83.8395 0003701 125.6902  37.0996  1.00283169 38794
BELINTERSAT-1           
1 41238U 16001A   26194.49994551  .00000103  00000+0  00000+0 0  9996
2 41238   0.0592 251.8656 0001900 177.6856  93.2900  1.00272449 38507
IRNSS-1E                
1 41241U 16003A   26191.58253116 -.00000316  00000+0  00000+0 0  9991
2 41241  33.2836  59.4106 0019285 178.7449  11.7354  1.00267797 38314
EUTELSAT 9B             
1 41310U 16005A   26194.34891719  .00000058  00000+0  00000+0 0  9996
2 41310   0.0321  56.9303 0000998  44.4993 324.3904  1.00269978 38370
SES-9                   
1 41380U 16013A   26194.36859060 -.00000348  00000+0  00000+0 0  9990
2 41380   0.0161 330.6598 0002054 134.6810  66.9019  1.00270625 37705
EUTELSAT 65 WEST A      
1 41382U 16014A   26194.51990227 -.00000280  00000+0  00000+0 0  9996
2 41382   0.0629 319.8175 0002006 155.2060 298.3468  1.00269766 37780
IRNSS-1F                
1 41384U 16015A   26194.28232837  .00000149  00000+0  00000+0 0  9992
2 41384   5.4126  96.1780 0017704 180.2487 148.9163  1.00265247 37920
BEIDOU-2 IGSO-6         
1 41434U 16021A   26177.11016981 -.00000145  00000+0  00000+0 0  9995
2 41434  60.2385  37.9495 0057558 231.0163 137.2672  1.00258926 37578
IRNSS-1G                
1 41469U 16027A   26194.51545492 -.00000343  00000+0  00000+0 0  9996
2 41469   5.2587  96.8656 0005962  10.3074 139.4630  1.00271982 37444
JCSAT-2B                
1 41471U 16028A   26194.50947581 -.00000169  00000+0  00000+0 0  9990
2 41471   0.0176  37.2242 0000742  79.7675 151.8010  1.00269730 37393
THAICOM 8               
1 41552U 16031A   26194.43395001 -.00000124  00000+0  00000+0 0  9991
2 41552   0.0726  47.6686 0002943  26.2666  92.0827  1.00270465 36986
INTELSAT 31 (IS-31)     
1 41581U 16035A   26194.18574118 -.00000153  00000+0  00000+0 0  9999
2 41581   0.0160 289.2103 0001139 354.6494 339.0259  1.00271434 36947
BEIDOU-2 G7             
1 41586U 16037A   26194.51164157 -.00000359  00000+0  00000+0 0  9999
2 41586   1.7819  69.4825 0005997 359.3097 157.3152  1.00274364  7156
ABS-2A (MONGOLSAT-1)    
1 41588U 16038A   26194.43325668 -.00000087  00000+0  00000+0 0  9997
2 41588   0.0128  27.9629 0001222  28.3002 105.7114  1.00269028 36978
EUTELSAT 117 WEST B     
1 41589U 16038B   26194.47058735 -.00000015  00000+0  00000+0 0  9991
2 41589   0.0079 161.6979 0000324 315.5484 226.5130  1.00270338 36926
BRISAT                  
1 41591U 16039A   26194.50947581  .00000000  00000+0  00000+0 0  9998
2 41591   0.0180  19.5359 0001868  95.2920 150.4690  1.00268953 36876
ECHOSTAR 18             
1 41592U 16039B   26194.47758541 -.00000286  00000+0  00000+0 0  9998
2 41592   0.0046 102.9535 0001335  20.0827 278.8778  1.00270731 36882
MUOS-5                  
1 41622U 16041A   26194.50531917 -.00000132  00000+0  00000+0 0  9995
2 41622   2.1486 302.1765 0199493 260.6346 165.3414  1.00271734 37351
TIANTONG-1 1            
1 41725U 16048A   26194.50982156 -.00000323  00000+0  00000+0 0  9993
2 41725   3.8986  43.6118 0004938  57.8965 114.8020  1.00269533 36534
JCSAT-16                
1 41729U 16050A   26194.51822825 -.00000255  00000+0  00000+0 0  9991
2 41729   0.0182  35.7226 0001082 108.2266 117.9502  1.00270001 36338
USA 270                 
1 41744U 16052A   26192.47641677 -.00000349  00000+0  00000+0 0  9991
2 41744   4.2578  76.8776 0009314 101.3149  48.8838  1.00269374 28376
USA 271                 
1 41745U 16052B   26188.73473646 -.00000278  00000+0  00000+0 0  9996
2 41745   4.2217  76.9947 0010955 166.6184  44.5685  1.00271212 28124
INTELSAT 36 (IS-36)     
1 41747U 16053A   26194.50323884 -.00000028  00000+0  00000+0 0  9992
2 41747   0.0103  19.8867 0002500 320.6602 200.4802  1.00270075 36225
INSAT-3DR               
1 41752U 16054A   26194.50436551 -.00000081  00000+0  00000+0 0  9994
2 41752   0.0655  88.6958 0010621 181.2588 276.9977  1.00270618 36083
GSAT-18                 
1 41793U 16060A   26194.50436551 -.00000080  00000+0  00000+0 0  9995
2 41793   0.0310  89.5602 0005223 348.6212 108.7352  1.00271112 35793
SKY MUSTER 2 (NBN1B)    
1 41794U 16060B   26194.51831492  .00000000  00000+0  00000+0 0  9991
2 41794   0.0211  43.3705 0001587  82.3428 137.0751  1.00268891 35783
HIMAWARI-9              
1 41836U 16064A   26194.30373513 -.00000278  00000+0  00000+0 0  9992
2 41836   0.0072 104.8912 0002222  76.0059   0.3761  1.00270182 35470
